STARLINK-4623           
1 55315U 23010AY  23033.91667824 -.00828781  00000+0 -53541-2 0  9994
2 55315  69.9999  28.5555 0003654 269.8428 136.5637 15.78010007  2764
STARLINK-5257           
1 55316U 23010AZ  23034.08334491 -.00922694  00000+0 -71192-2 0  9995
2 55316  69.9999  28.2173 0003539 262.6191 254.1457 15.74246751  2791
STARLINK-5265           
1 55317U 23010BA  23034.08334491 -.00851348  00000+0 -55408-2 0  9995
2 55317  69.9994  28.0691 0003744 257.3469  24.6230 15.77902909  2793
STARLINK-5180           
1 55318U 23010BB  23033.91667824 -.00832522  00000+0 -53335-2 0  9996
2 55318  70.0000  28.5434 0003641 270.5864 145.7533 15.78205548  2761
STARLINK-5196           
1 55319U 23010BC  23034.08334491 -.00870335  00000+0 -56665-2 0  9990
2 55319  69.9994  28.0677 0003737 258.2756  25.0428 15.77944401  2797
HAWK-6B                 
1 55324U 23011A   23033.63191168  .00005828  00000+0  40887-3 0  9994
2 55324  40.5041 230.0350 0004029 276.9924  83.0415 15.05503398  1306
ELECTRON KICK STAGE R/B 
1 55325U 23011B   23033.56542827  .00006736  00000+0  47147-3 0  9994
2 55325  40.5067 230.4119 0003373 246.3138 113.7314 15.05447633  1297
HAWK-6C                 
1 55326U 23011C   23033.89567154  .00008148  00000+0  56286-3 0  9994
2 55326  40.5002 228.5204 0003531 242.0919 117.9531 15.05775329  1345
HAWK-6A                 
1 55327U 23011D   23033.63008150  .00002466  00000+0  17866-3 0  9991
2 55327  40.5072 230.0203 0003912 242.1353 117.9050 15.05704925  1302
ELECTRON R/B            
1 55328U 23011E   23033.88341598  .00073901  00000+0  10060-2 0  9995
2 55328  40.4969 225.7285 0166304 190.9944 168.7217 15.41979823  1387
STARLINK-5492           
1 55331U 23013A   23033.91667824 -.00841443  21568-3 -26751-2 0  9994
2 55331  42.9999 358.7091 0025282 213.5009 311.3473 15.89648682  1643
STARLINK-5491           
1 55332U 23013B   23033.91667824  .00249366  31943-4  60548-3 0  9991
2 55332  42.9974 358.6603 0040128 210.4654 333.1993 15.94035693  1640
STARLINK-5493           
1 55333U 23013C   23033.91667824 -.00841358  21568-3 -26780-2 0  9993
2 55333  43.0000 358.7078 0024362 214.3625 310.9888 15.89666039  1647
STARLINK-5652           
1 55334U 23013D   23033.91667824 -.00841244  21561-3 -26698-2 0  9999
2 55334  43.0000 358.7088 0025833 213.8826 311.1996 15.89657698  1644
STARLINK-5660           
1 55335U 23013E   23033.91667824 -.00841328  21570-3 -26758-2 0  9990
2 55335  43.0000 358.7066 0024304 214.4583 311.3798 15.89683846  1646
STARLINK-5655           
1 55336U 23013F   23033.91667824 -.00851134  24262-3 -16479-2 0  9997
2 55336  43.0000 358.1856 0012687 230.9128 143.9359 15.99254697  1648
STARLINK-5667           
1 55337U 23013G   23033.91667824  .00261297  34750-4  58067-3 0  9995
2 55337  42.9977 358.6414 0043232 209.8632 341.1745 15.95368749  1641
STARLINK-5658           
1 55338U 23013H   23033.91667824 -.00840907  21553-3 -26741-2 0  9998
2 55338  43.0000 358.7062 0024138 214.2407 311.8005 15.89693523  1642
STARLINK-5671           
1 55339U 23013J   23033.91667824 -.00845091  21756-3 -26827-2 0  9998
2 55339  43.0001 358.7037 0024050 212.4882 314.4985 15.89732098  1643
STARLINK-5675           
1 55340U 23013K   23033.91667824 -.00844956  21752-3 -26803-2 0  9999
2 55340  43.0001 358.7033 0024179 212.3552 314.8772 15.89740859  1648
STARLINK-5670           
1 55341U 23013L   23034.00001157 -.00843882  21669-3 -27002-2 0  9998
2 55341  42.9996 358.1890 0023928 214.4109  69.7973 15.89582602  1657
STARLINK-5657           
1 55342U 23013M   23033.91667824 -.00846092  21807-3 -26830-2 0  9995
2 55342  43.0002 358.7029 0024082 214.1955 313.2324 15.89751789  1646
STARLINK-5661           
1 55343U 23013N   23033.91667824 -.00841581  21600-3 -26637-2 0  9990
2 55343  42.9999 358.7014 0024523 214.1099 313.7460 15.89768402  1649
STARLINK-5662           
1 55344U 23013P   23033.91667824 -.00843931  21708-3 -26762-2 0  9990
2 55344  43.0001 358.7022 0023884 211.5239 316.1408 15.89759430  1641
STARLINK-5653           
1 55345U 23013Q   23033.91667824 -.00794663  20513-3 -19124-2 0  9995
2 55345  42.9993 358.4020 0020000 218.0285  67.9544 15.95115329  1647
STARLINK-5631           
1 55346U 23013R   23033.91667824 -.00843704  21700-3 -26702-2 0  9996
2 55346  43.0002 358.7008 0024445 211.3769 316.9055 15.89773757  1642
STARLINK-5663           
1 55347U 23013S   23033.91667824 -.00844045  21724-3 -26620-2 0  9991
2 55347  43.0002 358.6985 0025052 212.7951 316.2447 15.89814764  1641
STARLINK-5609           
1 55348U 23013T   23033.91667824 -.00843247  21681-3 -26682-2 0  9995
2 55348  43.0002 358.7005 0024265 213.6607 314.7383 15.89785472  1644
STARLINK-5666           
1 55349U 23013U   23033.91667824 -.00845143  21772-3 -26678-2 0  9999
2 55349  43.0000 358.6994 0025062 213.7349 314.8333 15.89797517  1648
STARLINK-5668           
1 55350U 23013V   23033.91667824 -.00842746  21661-3 -26666-2 0  9991
2 55350  42.9999 358.6988 0023824 214.5475 314.2927 15.89804303  1646
STARLINK-5659           
1 55351U 23013W   23033.91667824 -.00843053  21685-3 -26561-2 0  9994
2 55351  43.0001 358.6960 0024721 211.0091 319.0118 15.89849437  1648
STARLINK-5547           
1 55352U 23013X   23033.91667824 -.00843393  21697-3 -26634-2 0  9996
2 55352  43.0001 358.6974 0024081 211.5185 318.0227 15.89831752  1643
STARLINK-5608           
1 55353U 23013Y   23033.91667824 -.00842696  21682-3 -26454-2 0  9996
2 55353  43.0001 358.6919 0024857 211.3104 320.3116 15.89913504  1642
STARLINK-5649           
1 55354U 23013Z   23033.91667824 -.00843802  21718-3 -26636-2 0  9999
2 55354  43.0001 358.6966 0024062 212.7969 316.9960 15.89840599  1648
STARLINK-5647           
1 55355U 23013AA  23033.91667824 -.00842938  21686-3 -26500-2 0  9993
2 55355  43.0001 358.6943 0025035 211.2962 319.3874 15.89877531  1649
STARLINK-5083           
1 55356U 23013AB  23033.91667824 -.00843055  21687-3 -26579-2 0  9992
2 55356  43.0001 358.6955 0024208 211.1571 319.0940 15.89858606  1642
STARLINK-5651           
1 55357U 23013AC  23033.91667824 -.00843523  21715-3 -26526-2 0  9997
2 55357  43.0001 358.6936 0024696 212.9347 317.9760 15.89887034  1647
STARLINK-5622           
1 55358U 23013AD  23033.91667824 -.00843037  21688-3 -26549-2 0  9992
2 55358  43.0001 358.6950 0024482 211.3722 319.0870 15.89868279  1642
STARLINK-5641           
1 55359U 23013AE  23033.91667824 -.00842972  21691-3 -26507-2 0  9998
2 55359  43.0001 358.6931 0024521 211.6866 319.4579 15.89895814  1643
STARLINK-5664           
1 55360U 23013AF  23033.91667824 -.00840707  21637-3 -26098-2 0  9999
2 55360  43.0001 358.6770 0024445 213.8110 323.8096 15.90147931  1642
STARLINK-5665           
1 55361U 23013AG  23033.91667824 -.00843091  21706-3 -26455-2 0  9993
2 55361  43.0001 358.6903 0024404 213.3122 318.9709 15.89941764  1644
STARLINK-5574           
1 55362U 23013AH  23033.91667824 -.00843066  21702-3 -26487-2 0  9997
2 55362  43.0001 358.6907 0024149 213.3526 318.8571 15.89928719  1644
STARLINK-5648           
1 55363U 23013AJ  23033.91667824 -.00842886  21698-3 -26441-2 0  9991
2 55363  43.0001 358.6896 0024335 213.1530 319.3805 15.89950265  1649
STARLINK-5627           
1 55364U 23013AK  23033.91667824 -.00842674  21679-3 -26467-2 0  9994
2 55364  43.0001 358.6926 0024835 211.0444 320.3452 15.89904423  1645
STARLINK-5639           
1 55365U 23013AL  23033.91667824 -.00841960  21660-3 -26362-2 0  9996
2 55365  43.0002 358.6879 0024554 213.3996 319.8179 15.89977295  1645
STARLINK-5654           
1 55366U 23013AM  23033.91667824 -.00841111  21609-3 -26394-2 0  9993
2 55366  42.9999 358.6913 0024818 213.7827 318.0448 15.89922483  1647
STARLINK-5635           
1 55367U 23013AN  23033.91667824 -.00842591  21692-3 -26363-2 0  9995
2 55367  43.0000 358.6872 0024665 212.9736 320.4882 15.89986328  1644
STARLINK-5625           
1 55368U 23013AP  23033.91667824 -.00842374  21676-3 -26416-2 0  9996
2 55368  43.0000 358.6892 0024279 211.8621 320.9010 15.89959135  1643
STARLINK-5644           
1 55369U 23013AQ  23033.91667824 -.00842186  21675-3 -26341-2 0  9994
2 55369  43.0000 358.6867 0024574 212.0513 321.5642 15.89997109  1648
STARLINK-5027           
1 55370U 23013AR  23033.91667824 -.00842737  21695-3 -26413-2 0  9990
2 55370  43.0000 358.6885 0024306 213.0800 319.9058 15.89968595  1642
STARLINK-5590           
1 55371U 23013AS  23033.91667824 -.00842284  21685-3 -26321-2 0  9995
2 55371  43.0001 358.6848 0024374 213.2112 321.1594 15.90022807  1645
STARLINK-5568           
1 55372U 23013AT  23033.91667824 -.00842309  21682-3 -26311-2 0  9990
2 55372  43.0000 358.6862 0024977 212.6791 321.2457 15.90004286  1646
STARLINK-5581           
1 55373U 23013AU  23033.91667824 -.00841147  21634-3 -26265-2 0  9995
2 55373  43.0002 358.6843 0024510 213.3682 321.2106 15.90031795  1644
STARLINK-5578           
1 55374U 23013AV  23033.91667824 -.00842326  21685-3 -26314-2 0  9997
2 55374  43.0000 358.6855 0024721 212.9426 321.1960 15.90013780  1642
STARLINK-5588           
1 55375U 23013AW  23033.91667824 -.00807688  20096-3 -25219-2 0  9998
2 55375  42.9997 358.6818 0024245 214.7171 320.5839 15.90038210  1646
STARLINK-5586           
1 55376U 23013AX  23033.91667824 -.00841894  21672-3 -26272-2 0  9997
2 55376  43.0001 358.6832 0024378 212.8205 322.2450 15.90049696  1643
STARLINK-5567           
1 55377U 23013AY  23033.91667824 -.00806385  20048-3 -25101-2 0  9990
2 55377  42.9998 358.6777 0024243 214.5950 322.4438 15.90097627  1647
STARLINK-5572           
1 55378U 23013AZ  23033.91667824 -.00843733  21757-3 -26356-2 0  9990
2 55378  43.0001 358.6838 0024112 213.9206 320.9166 15.90041935  1647
STARLINK-5569           
1 55379U 23013BA  23033.91667824 -.00841655  21671-3 -26199-2 0  9992
2 55379  43.0000 358.6800 0024436 213.0117 323.1760 15.90095533  1645
